[
    {
        "Altitude(m)": 611967.1437351038,
        "Argument of Periapsis(deg)": 0.0,
        "Eccentricity": 0.0,
        "Inclination(deg)": 60.0,
        "Latitude(deg)": 59.14005488502304,
        "Longitude(deg)": -68.90797545827398,
        "Mean Anomaly(deg)": -261.8182,
        "RAAN(deg)": 285.0,
        "Satellite Name": "Test1 1260",
        "Satellite Number": 1260,
        "Semi-Major Axis(m)": 6980739.136638005,
        "Time(s)": 0
    },
    {
        "Altitude(m)": 611934.3436328511,
        "Argument of Periapsis(deg)": 0.00010418945913296404,
        "Eccentricity": 0.0,
        "Inclination(deg)": 60.0,
        "Latitude(deg)": 58.98641747649089,
        "Longitude(deg)": -67.78473298702869,
        "Mean Anomaly(deg)": -261.1980938545382,
        "RAAN(deg)": 284.9995799508602,
        "Satellite Name": "Test1 1260",
        "Satellite Number": 1260,
        "Semi-Major Axis(m)": 6980739.136638005,
        "Time(s)": 10
    }
]